[{"OBJECT_NAME":"STARLINK-2440","OBJECT_ID":"2021-027P","EPOCH":"2026-03-10T00:00:02.999808","MEAN_MOTION":15.26632507,"ECCENTRICITY":0.0001349,"INCLINATION":53.1427,"RA_OF_ASC_NODE":99.4722,"ARG_OF_PERICENTER":82.5346,"MEAN_ANOMALY":301.8007,"EPHEMERIS_TYPE":0,"CLASSIFICATION_TYPE":"U","NORAD_CAT_ID":48105,"ELEMENT_SET_NO":999,"REV_AT_EPOCH":579,"BSTAR":0.063164242,"MEAN_MOTION_DOT":0.0184398,"MEAN_MOTION_DDOT":0},{"OBJECT_NAME":"GLOBAL-16","OBJECT_ID":"2021-120B","EPOCH":"2026-03-09T22:17:58.422624","MEAN_MOTION":15.45410184,"ECCENTRICITY":0.00103658,"INCLINATION":41.9956,"RA_OF_ASC_NODE":280.5855,"ARG_OF_PERICENTER":266.9387,"MEAN_ANOMALY":93.0268,"EPHEMERIS_TYPE":0,"CLASSIFICATION_TYPE":"U","NORAD_CAT_ID":49950,"ELEMENT_SET_NO":999,"REV_AT_EPOCH":23946,"BSTAR":0.00055529075,"MEAN_MOTION_DOT":0.00027062,"MEAN_MOTION_DDOT":0}]
